{
  "type": "FeatureCollection",
  "name": "synthetic_outbreak_sites_epsg3857",
  "crs": {
    "type": "name",
    "properties": { "name": "EPSG:3857" }
  },
  "features": [
    {
      "type": "Feature",
      "properties": { "site_id": "site-1", "cases": 12, "synthetic": true },
      "geometry": { "type": "Point", "coordinates": [-9299396.488644922, 5109111.623811886] }
    },
    {
      "type": "Feature",
      "properties": { "site_id": "site-2", "cases": 7, "synthetic": true },
      "geometry": { "type": "Point", "coordinates": [-9301322.315835377, 5110765.499724107] }
    },
    {
      "type": "Feature",
      "properties": { "site_id": "site-3", "cases": 4, "synthetic": true },
      "geometry": { "type": "Point", "coordinates": [-9297348.210014611, 5107264.3877064] }
    }
  ]
}
