{
  "type": "FeatureCollection",
  "features": [
    {
      "type": "Feature",
      "properties": { "name": "Synthetic investigation site", "kind": "point" },
      "geometry": { "type": "Point", "coordinates": [-83.5379, 41.6528] }
    },
    {
      "type": "Feature",
      "properties": { "name": "Synthetic exposure area", "kind": "polygon" },
      "geometry": {
        "type": "Polygon",
        "coordinates": [[[-83.57, 41.63], [-83.51, 41.63], [-83.51, 41.69], [-83.57, 41.69], [-83.57, 41.63]]]
      }
    }
  ]
}
