{
  "type": "FeatureCollection",
  "name": "study_zones",
  "crs": { "type": "name", "properties": { "name": "urn:ogc:def:crs:OGC:1.3:CRS84" } },
  "features": [
    { "type": "Feature", "properties": { "zone_id": "Z01", "name": "Northwest", "case_count": 12 }, "geometry": { "type": "Polygon", "coordinates": [[[-83.69,41.67],[-83.59,41.67],[-83.59,41.75],[-83.69,41.75],[-83.69,41.67]]] } },
    { "type": "Feature", "properties": { "zone_id": "Z02", "name": "North with exclusion", "case_count": 8 }, "geometry": { "type": "Polygon", "coordinates": [[[-83.59,41.67],[-83.49,41.67],[-83.49,41.75],[-83.59,41.75],[-83.59,41.67]],[[-83.56,41.70],[-83.53,41.70],[-83.53,41.72],[-83.56,41.72],[-83.56,41.70]]] } },
    { "type": "Feature", "properties": { "zone_id": "Z03", "name": "Southwest irregular", "case_count": 20 }, "geometry": { "type": "Polygon", "coordinates": [[[-83.69,41.59],[-83.55,41.59],[-83.58,41.67],[-83.67,41.66],[-83.69,41.59]]] } },
    { "type": "Feature", "properties": { "zone_id": "Z04", "name": "South central", "case_count": 15 }, "geometry": { "type": "Polygon", "coordinates": [[[-83.55,41.59],[-83.44,41.59],[-83.44,41.67],[-83.55,41.67],[-83.55,41.59]]] } },
    { "type": "Feature", "properties": { "zone_id": "Z05", "name": "Eastern partial coverage", "case_count": 5 }, "geometry": { "type": "Polygon", "coordinates": [[[-83.44,41.66],[-83.36,41.66],[-83.36,41.74],[-83.44,41.74],[-83.44,41.66]]] } },
    { "type": "Feature", "properties": { "zone_id": "Z06", "name": "Outside raster", "case_count": 1 }, "geometry": { "type": "Polygon", "coordinates": [[[-83.30,41.60],[-83.25,41.60],[-83.25,41.65],[-83.30,41.65],[-83.30,41.60]]] } }
  ]
}
